"index","ListRank","VArank","PeakID","Name","Elev_ft","Latitude","Longitude","Unknown_Z","Prominence","Parent","Prox_Parent","Isolation","County_MaxOverlap","Quadrangle_ID","Town_nearby"
0,1,278,104575,"Big Flat Mountain","3389",38.3017,-78.6228,"2260","1,129","Hightop","Hightop",8.9,"Albemarle",30336,"Browns Cove"
1,2,307,104632,"Cedar Mountain","3330",38.2206,-78.7136,"2780",550,"Trayfoot Mountain","Trayfoot Mountain",2.35,"Albemarle",30336,"Browns Cove"
2,,,104656,"Loft Mountain","3300",38.2645,-78.6487,"3180",120,"Big Flat Mountain","Big Flat Mountain",1.79,"Albemarle",30311,"McGaheysville"
3,3,389,104782,"Bucks Elbow Mountain","3170",38.1051,-78.7798,"2140","1,030","Trayfoot Mountain","Cedar Mountain",8,"Albemarle",30362,"Crozet"
4,,,104816,"Blackrock","3140",38.2228,-78.7436,"2900",240,"Trayfoot Mountain","Trayfoot Mountain",0.78,"Albemarle",30336,"Browns Cove"
5,,,104825,"Little Flat Mountain","3135",38.2381,-78.672,"2900",235,"Big Flat Mountain","Big Flat Mountain",0.88,"Albemarle",30336,"Browns Cove"
6,4,422,104857,3100,"3100",38.2068,-78.7494,"2321",779,"Trayfoot Mountain","Bucks Elbow Mountain",3.05,"Albemarle",30335,"Crimora"
7,5,425,104894,3100,"3100",38.2714,-78.662,"2740",360,"Big Flat Mountain","Big Flat Mountain",2.14,"Albemarle",30311,"McGaheysville"
8,,"S",105021,2980,"2980",38.1774,-78.7651,"2700",280,3100,"Trayfoot Mountain",2.88,"Albemarle",30335,"Crimora"
9,,,105031,"Pinestand Mountain","2980",38.2177,-78.7294,"2940",40,"Trayfoot Mountain","Cedar Mountain",1.12,"Albemarle",30336,"Browns Cove"
10,6,513,105034,"Calf Mountain","2974",38.0948,-78.7731,"2420",554,"Bucks Elbow Mountain","Bucks Elbow Mountain",2.67,"Albemarle",30361,"Waynesboro East"
11,,,140516,"""Little Calf Mountain""","2910",38.08,-78.7892,"2820",90,"Calf Mountain","Calf Mountain",0.68,"Albemarle",30361,"Waynesboro East"
12,7,564,105125,"Pasture Fence Mountain","2900",38.1982,-78.721,"2380",520,"Cedar Mountain","Cedar Mountain",2.75,"Albemarle",30336,"Browns Cove"
13,8,577,105154,"Bear Den Mountain","2885",38.0729,-78.7932,"2540",345,"Calf Mountain","Calf Mountain",1.32,"Albemarle",30361,"Waynesboro East"
14,9,674,105327,"Scott Mountain","2762",38.0598,-78.8177,"2460",302,"Bear Den Mountain","Bear Den Mountain",1.43,"Albemarle",30361,"Waynesboro East"
15,,,105408,"Pond Ridge","2700",38.1586,-78.7618,"2660",40,3100,3100,1.35,"Albemarle",30335,"Crimora"
16,10,830,105647,"Gibson Mountain","2491",38.2089,-78.655,"1100","1,391","Big Flat Mountain","Big Flat Mountain",3.3,"Albemarle",30336,"Browns Cove"
17,11,883,105750,"Heard Mountain","2390",37.9899,-78.8039,790,"1,600","Scott Mountain","Crawford Knob",8.63,"Albemarle",30391,"Covesville"
18,12,905,105786,"Castle Rock","2374",37.9378,-78.741,"1730",644,"Heard Mountain","Heard Mountain",1.53,"Albemarle",30391,"Covesville"
19,13,912,105798,"High Top Mountain","2369",38.2035,-78.644,"1794",575,"Gibson Mountain","Gibson Mountain",1.28,"Albemarle",30336,"Browns Cove"
20,14,1076,106035,"Massies Mountain","2168",37.9324,-78.7561,"1350",818,"Heard Mountain","Heard Mountain",1.58,"Albemarle",30390,"Greenfield"
21,15,1115,106093,"Boaz Mountains (HP)","2110",37.9202,-78.739,"1410",700,"Heard Mountain","Heard Mountain",1.27,"Albemarle",30391,"Covesville"
22,,,106151,"Martins Mountain","2089",38.1955,-78.6493,"1980",109,"High Top Mountain","High Top Mountain",0.44,"Albemarle",30336,"Browns Cove"
23,,,106188,"Middle Mountain","2060",38.1211,-78.7491,"1795",265,"Bucks Elbow Mountain","Bucks Elbow Mountain",1.49,"Albemarle",30336,"Browns Cove"
24,,,106221,"Moses Mountain","2030",37.946,-78.7402,"1810",220,"Castle Rock","Castle Rock",0.93,"Albemarle",30391,"Covesville"
25,16,1220,106276,"County Line Mountain","1978",38.2618,-78.621,"1230",748,"Big Flat Mountain","Flattop Mountain",2.59,"Albemarle",30312,"Swift Run Gap"
26,,,106329,"Walnut Top","1930",37.8976,-78.7401,"1690",240,"Boaz Mountains (HP)","Boaz Mountains (HP)",1.27,"Albemarle",30391,"Covesville"
27,17,1284,106373,"Mill Mountain","1895",37.9442,-78.7124,"1570",325,"Castle Rock","Castle Rock",1.71,"Albemarle",30391,"Covesville"
28,,,106402,"Long Arm Mountain","1870",37.952,-78.71,"1610",260,"Castle Rock","Castle Rock",1.48,"Albemarle",30391,"Covesville"
29,18,1316,106427,"Appleberry Mountain","1848",37.8879,-78.7074,810,"1,038","Boaz Mountains (HP)","Boaz Mountains (HP)",4.39,"Albemarle",30429,"Schuyler"
30,19,1325,106440,"Peters Mountain","1830",38.1699,-78.2961,530,"1,300","Saddleback Mountain","Gibson Mountain",19.81,"Albemarle",30339,"Barboursville"
31,20,1336,106455,"Oliver Mount","1825",37.866,-78.6915,"1450",375,"Appleberry Mountain","Appleberry Mountain",1.29,"Albemarle",30391,"Covesville"
32,,,106500,"Brush Mountain","1781",37.8712,-78.6956,"1510",271,"Oliver Mount","Appleberry Mountain",0.61,"Albemarle",30429,"Schuyler"
33,21,1417,106608,"Dudley Mountain","1646",37.9836,-78.5927,730,916,"Castle Rock","Mill Mountain",6.92,"Albemarle",30392,"Alberene"
34,22,1433,106643,"Carters Mountain","1590",37.957,-78.5558,530,"1,060","Dudley Mountain","Dudley Mountain",5.19,"Albemarle",30393,"Simeon"
35,23,1439,106652,"Pigeon Top Mountain","1580",38.1588,-78.6451,820,760,"High Top Mountain","High Top Mountain",3.4,"Albemarle",30336,"Browns Cove"
36,,,106687,"Goodlow Mountain","1504",38.1329,-78.2788,"1370",134,"Peters Mountain","Peters Mountain",0.95,"Albemarle",30339,"Barboursville"
37,24,1456,106689,"Sugarloaf Mountain","1502",38.1038,-78.3161,976,526,"Peters Mountain","Peters Mountain",6.48,"Albemarle",30365,"Keswick"
38,25,1458,106690,"Wolfpit Mountain","1498",38.0472,-78.3873,910,588,"Sugarloaf Mountain","Sugarloaf Mountain",2.1,"Albemarle",30364,"Charlottesville East"
39,26,1461,106695,"Hightop","1481",38.0595,-78.3579,"1030",451,"Sugarloaf Mountain","Sugarloaf Mountain",2.23,"Albemarle",30365,"Keswick"
40,27,1465,106703,"Currant Mountain","1466",38.1744,-78.6371,940,526,"High Top Mountain","High Top Mountain",1.68,"Albemarle",30336,"Browns Cove"
41,28,1469,106711,"Taylors Mountain","1454",38.0068,-78.6556,930,524,"Castle Rock","Dudley Mountain",4.15,"Albemarle",30362,"Crozet"
42,,,106721,"Long Mountain","1442",38.0563,-78.37,"1330",112,"Sugarloaf Mountain","Sugarloaf Mountain",0.51,"Albemarle",30364,"Charlottesville East"
43,29,1478,106723,"Israel Mountain","1430",37.9796,-78.6978,950,480,"Castle Rock","Taylors Mountain",2.29,"Albemarle",30391,"Covesville"
44,,,106735,"Chalk Mountain","1418",37.9319,-78.6854,"1390",28,"Mill Mountain","Mill Mountain",0.97,"Albemarle",30391,"Covesville"
45,,,106739,"Beaver Creek Mountain","1410",38.0918,-78.721,"1150",260,"Bucks Elbow Mountain","Bucks Elbow Mountain",2.16,"Albemarle",30362,"Crozet"
46,30,1493,106765,"Walnut Mountain","1382",38.0838,-78.3326,999,383,"Hightop","Hightop",1.93,"Albemarle",30365,"Keswick"
47,,,106766,"Little Yellow Mountain","1382",38.0799,-78.7377,"1230",152,"Bucks Elbow Mountain","Bucks Elbow Mountain",1.89,"Albemarle",30362,"Crozet"
48,31,1494,106768,"Buck Mountain","1378",38.2047,-78.5753,630,748,"Gibson Mountain","Currant Mountain",3.88,"Albemarle",30337,"Free Union"
49,32,1497,106773,"Gay Mountain","1370",37.9484,-78.6336,690,680,"Mill Mountain","Dudley Mountain",2.82,"Albemarle",30392,"Alberene"
50,33,1501,152561,1370,"1370",37.9339,-78.6223,"1070",300,"Mill Mountain","Dudley Mountain",3.51,"Albemarle",30392,"Alberene"
51,,,106789,"Trevillian Mountain","1358",38.0417,-78.4063,"1230",128,"Wolfpit Mountain","Wolfpit Mountain",0.57,"Albemarle",30364,"Charlottesville East"
52,,,106790,"Lonesome Mountain","1353",38.0786,-78.3427,"1150",203,"Hightop","Hightop",1.14,"Albemarle",30365,"Keswick"
53,,,106793,"Broadhead Mountain","1350",38.0697,-78.3456,"1230",120,"Hightop","Hightop",0.68,"Albemarle",30365,"Keswick"
54,34,1513,106805,1340,"1340",38.1968,-78.69,"1020",320,"Cedar Mountain","High Top Mountain",1.98,"Albemarle",30336,"Browns Cove"
55,,,106813,"Piney Mountain","1330",37.9928,-78.5604,"1110",220,"Dudley Mountain","Dudley Mountain",2.06,"Albemarle",30392,"Alberene"
56,35,1522,106826,"Sharp Top","1316",37.9682,-78.7472,950,366,"Castle Rock","Castle Rock",1.92,"Albemarle",30391,"Covesville"
57,36,1525,106829,"Gibson Mountain","1310",38.0119,-78.6269,810,500,"Taylors Mountain","Dudley Mountain",1.63,"Albemarle",30392,"Alberene"
58,,,106835,"Dowell Mountain","1307",38.127,-78.3076,"1170",137,"Peters Mountain","Peters Mountain",1.22,"Albemarle",30339,"Barboursville"
59,37,1531,106843,"Woodson Mountain","1297",38.0054,-78.6033,910,387,"Gibson Mountain","Gibson Mountain",1.37,"Albemarle",30363,"Charlottesville West"
60,,,106845,"Patterson Mountain","1290",37.9965,-78.468,"1110",180,"Carters Mountain","Carters Mountain",1.91,"Albemarle",30364,"Charlottesville East"
61,,,106858,"Sprouse Mountain","1270",37.9995,-78.679,"1210",60,"Israel Mountain","Israel Mountain",0.4,"Albemarle",30362,"Crozet"
62,,,106865,"Britts Mountain","1262",37.9954,-78.5643,"1030",232,"Dudley Mountain","Gibson Mountain",1.98,"Albemarle",30363,"Charlottesville West"
63,,,106866,"Newcomb Mountain","1262",38.0146,-78.6019,"1070",192,"Woodson Mountain","Woodson Mountain",0.47,"Albemarle",30363,"Charlottesville West"
64,38,1539,106868,"Cook Mountain","1250",37.9425,-78.6662,842,408,"Mill Mountain","Mill Mountain",2.14,"Albemarle",30391,"Covesville"
65,,,106870,"Shiloh Mountain","1250",37.8403,-78.7051,970,280,"Appleberry Mountain","Appleberry Mountain",1.96,"Albemarle",30429,"Schuyler"
66,,,106878,"Bear Den Mountain","1248",38.0198,-78.5929,"1150",98,"Woodson Mountain","Woodson Mountain",1.1,"Albemarle",30363,"Charlottesville West"
67,39,1545,106884,"Harris Mountain","1230",38.2379,-78.5855,790,440,"County Line Mountain","Bingham Mountain",2.52,"Albemarle",30337,"Free Union"
68,40,1553,106901,"Tom Mountain","1211",37.9728,-78.68,830,381,"Castle Rock","Israel Mountain",1.51,"Albemarle",30391,"Covesville"
69,41,1556,106904,"Green Mountain","1210",38.2273,-78.577,890,320,"Harris Mountain","Harris Mountain",0.91,"Albemarle",30337,"Free Union"
70,42,1558,106913,"Lick Mountain","1196",38.2398,-78.6139,870,326,"County Line Mountain","County Line Mountain",1.55,"Albemarle",30337,"Free Union"
71,43,1562,106926,1183,"1183",38.0115,-78.807,810,373,"Scott Mountain","Ennis Mountain",2.09,"Albemarle",30390,"Greenfield"
72,,,106934,"Martins Mountain","1170",38.0001,-78.6703,970,200,"Israel Mountain","Taylors Mountain",1.02,"Albemarle",30362,"Crozet"
73,,,106954,"Turks Mountain","1136",38.0258,-78.8125,900,236,"Scott Mountain",1183,1.61,"Albemarle",30361,"Waynesboro East"
74,44,1580,106968,"Piney Mountain","1116",38.2015,-78.4008,590,526,"Saddleback Mountain","Bingham Mountain",7.08,"Albemarle",30338,"Earlysville"
75,,,106976,"Round Top","1099",38.0215,-78.8192,900,199,"Scott Mountain",1183,1.64,"Albemarle",30361,"Waynesboro East"
76,45,1588,106985,"Yellow Mountain","1088",38.0171,-78.753,740,348,"Scott Mountain","Sharp Top",3.56,"Albemarle",30362,"Crozet"
77,46,1589,106986,"Gillums Mountain","1087",38.0323,-78.6384,690,397,"Taylors Mountain","Taylors Mountain",2.18,"Albemarle",30362,"Crozet"
78,47,1592,106989,"Round Top","1084",37.9323,-78.5284,770,314,"Carters Mountain","Dudley Mountain",4.06,"Albemarle",30392,"Alberene"
79,48,1597,152560,1070,"1070",37.9759,-78.5967,750,320,"Dudley Mountain","Dudley Mountain",1.29,"Albemarle",30392,"Alberene"
80,,,107012,"Pryors Mountain","1034",38.0022,-78.5982,930,104,"Gibson Mountain","Woodson Mountain",0.6,"Albemarle",30363,"Charlottesville West"
81,,,107014,"Persimmon Mountain","1030",37.897,-78.6921,790,240,"Oliver Mount","Oliver Mount",1.86,"Albemarle",30391,"Covesville"
82,,,107019,"Cherry Mountain","1011",38.1903,-78.6165,830,181,"High Top Mountain","Currant Mountain",1.25,"Albemarle",30337,"Free Union"
83,49,1603,107020,"Turners Mountain","1010",38.0566,-78.624,650,360,"Gillums Mountain","Gillums Mountain",2.82,"Albemarle",30363,"Charlottesville West"
84,50,1608,107045,"Ammonett Mountain",974,37.9278,-78.6065,630,344,"Gay Mountain","Gay Mountain",1.69,"Albemarle",30392,"Alberene"
85,,,107070,"Round Top",919,38.0322,-78.5576,730,189,"Woodson Mountain","Woodson Mountain",3.07,"Albemarle",30363,"Charlottesville West"
86,51,1615,107092,"Lewis Mountain",890,38.0459,-78.5195,570,320,"Woodson Mountain","Carters Mountain",4.58,"Albemarle",30363,"Charlottesville West"
87,,,107103,"Jefferson Mount",870,38.0386,-78.5228,710,160,"Lewis Mountain","Lewis Mountain",0.61,"Albemarle",30363,"Charlottesville West"
88,,,107109,"Bray Hill",860,38.1346,-78.6333,700,160,"Pigeon Top Mountain","Pigeon Top Mountain",0.8,"Albemarle",30336,"Browns Cove"
89,,,107126,"Clark Mountain",821,38.0762,-78.6106,670,151,"Turners Mountain","Turners Mountain",0.7,"Albemarle",30363,"Charlottesville West"
90,,,107129,"Jones Mountain",811,38.1156,-78.6354,650,161,"Bucks Elbow Mountain","Pigeon Top Mountain",1.76,"Albemarle",30362,"Crozet"
91,,,107131,"Frays Mountain",810,38.1844,-78.5117,590,220,"Green Mountain","Piney Mountain",3.51,"Albemarle",30338,"Earlysville"
92,,,107130,"Stillhouse Mountain",810,38.0535,-78.5306,590,220,"Woodson Mountain","Lewis Mountain",1.5,"Albemarle",30363,"Charlottesville West"
93,,,107133,"Green Mountain",810,37.8368,-78.6397,610,200,"Oliver Mount","Butler Mountain",3.82,"Albemarle",30429,"Schuyler"
94,,,107145,"Charlottesville City HP (Historical)",770,38.033,-78.5197,770,0,"Lewis Mountain","Lewis Mountain",0.59,"Albemarle",30363,"Charlottesville West"
95,,,107156,"Alto Mount",734,37.8005,-78.6412,590,144,"Oliver Mount","Butler Mountain",4.87,"Albemarle",30429,"Schuyler"
96,,,107172,"Castle Hill",630,38.0869,-78.3008,610,20,"Walnut Mountain","Walnut Mountain",1.38,"Albemarle",30365,"Keswick"
97,,,107177,"Pantops",570,38.0293,-78.4412,570,0,"Wolfpit Mountain","Wolfpit Mountain",2.56,"Albemarle",30364,"Charlottesville East"
0,1,74,104185,"Priest The","4063",37.8255,-79.0819,"3300",763,"Rocky Mountain","Rocky Mountain",6.66,"Nelson",30426,"Massies Mill"
1,2,80,104191,"Maintop Mountain","4060",37.8289,-79.1286,"3460",600,"Rocky Mountain","Priest The",3.34,"Nelson",30426,"Massies Mill"
2,3,90,104203,"Elk Pond Mountain","4034",37.8045,-79.1711,"3700",334,"Rocky Mountain","Rocky Mountain",1.47,"Nelson",30425,"Montebello"
3,4,101,104222,"Three Ridges","3970",37.8956,-79.0448,"2540","1,430","Elk Pond Mountain","Priest The",5.05,"Nelson",30427,"Horseshoe Mountain"
4,5,127,104279,"Devils Knob","3851",37.9019,-78.9853,"2645","1,206","Three Ridges","Three Ridges",4.32,"Augusta",30389,"Sherando"
5,6,159,104340,"Little Priest","3733",37.8073,-79.0758,"3300",433,"Priest The","Priest The",1.32,"Nelson",30426,"Massies Mill"
6,,,104347,"Pinnacle Ridge","3707",37.8254,-79.0756,"3540",167,"Priest The","Priest The",0.84,"Nelson",30426,"Massies Mill"
7,,,104360,"Porters Ridge","3700",37.8252,-79.1427,"3520",180,"Elk Pond Mountain","Maintop Mountain",0.98,"Nelson",30425,"Montebello"
8,,,104363,"Spy Rock","3700",37.8253,-79.1183,"3671",29,"Maintop Mountain","Maintop Mountain",0.49,"Nelson",30426,"Massies Mill"
9,7,196,104405,"Humpback Mountain","3620",37.9402,-78.9317,"2900",720,"Devils Knob","Devils Knob",3.78,"Augusta",30389,"Sherando"
10,8,204,104427,"Bald Mountain","3587",37.9445,-79.0595,"3180",407,"Cellar Mountain","Cellar Mountain",3.23,"Augusta",30388,"Big Levels"
11,,"S",104466,3540,"3540",37.8243,-79.0934,"3260",280,"Maintop Mountain","Priest The",1.36,"Nelson",30426,"Massies Mill"
12,9,242,104495,3490,"3490",37.8865,-79.1514,"2970",520,"Bald Mountain","Maintop Mountain",3.87,"Nelson",30387,"Vesuvius"
13,,,104512,"Round Mountain","3460",37.9148,-79.0773,"3220",240,"Bald Mountain","Mine Bank Mountain",1.33,"Nelson",30388,"Big Levels"
14,,,104528,"Black Rock Mountain","3446",37.9138,-78.9421,"3220",226,"Devils Knob","Devils Knob",1.12,"Nelson",30389,"Sherando"
15,10,341,104688,"Fork Mountain","3260",37.862,-79.1371,"2820",440,"Elk Pond Mountain","Bald Mountain",3.15,"Nelson",30426,"Massies Mill"
16,,,104748,"Chimney Rock","3204",37.8519,-78.9904,"3130",74,"Three Ridges","Three Ridges",0.71,"Nelson",30427,"Horseshoe Mountain"
17,11,370,104751,"Meadow Mountain","3196",37.8845,-78.9922,"2740",456,"Three Ridges","Three Ridges",2.16,"Augusta",30389,"Sherando"
18,,,192793,"Rocks The","3150",37.9608,-78.9005,"3130",20,"Humpback Mountain","Humpback Mountain",0.86,"Augusta",30389,"Sherando"
19,,"S",104855,3102,"3102",37.871,-79.1023,"2820",282,"Fork Mountain","Fork Mountain",1.82,"Nelson",30426,"Massies Mill"
20,,,104942,"Bee Mountain","3034",37.8764,-78.9919,"2900",134,"Meadow Mountain","Meadow Mountain",0.71,"Nelson",30389,"Sherando"
21,12,472,104957,"Crawford Knob","3028",37.9285,-78.9014,"2660",368,"Humpback Mountain","Humpback Mountain",1.64,"Nelson",30389,"Sherando"
22,13,507,105014,2980,"2980",37.885,-79.0095,"2620",360,"Meadow Mountain","Bald Mountain",2.09,"Augusta",30388,"Big Levels"
23,,,105030,"Copelands Rocks","2980",37.9045,-79.0642,"2900",80,"Bald Mountain","Bald Mountain",1.15,"Nelson",30388,"Big Levels"
24,14,540,105073,2940,"2940",37.8924,-79.0219,"2620",320,2980,"Meadow Mountain",0.96,"Augusta",30388,"Big Levels"
25,,"S",105280,2795,"2795",37.8002,-79.1124,"2500",295,"Maintop Mountain","Cardinal The",1.95,"Nelson",30426,"Massies Mill"
26,,,105309,"Piney Mountain","2778",37.9002,-78.9631,"2700",78,"Devils Knob","Devils Knob",1.43,"Nelson",30389,"Sherando"
27,15,699,105379,"Dobie Mountain","2712",37.9685,-78.8967,"2380",332,"Humpback Mountain","Humpback Mountain",1.98,"Augusta",30389,"Sherando"
28,16,734,105448,"Elk Mountain","2660",37.9819,-78.9072,"2140",520,"Dobie Mountain","Dobie Mountain",1.62,"Augusta",30360,"Waynesboro West"
29,,,105567,"Bryant Mountain","2562",37.8939,-78.9561,"2500",62,"Devils Knob","Devils Knob",1.59,"Nelson",30389,"Sherando"
30,17,853,105698,"Horseshoe Mountain","2438",37.8514,-78.9226,"1438","1,000","Three Ridges","Three Ridges",4.7,"Nelson",30427,"Horseshoe Mountain"
31,18,903,105784,"White Mountain","2379",37.8341,-78.9136,"1890",489,"Horseshoe Mountain","Horseshoe Mountain",1.35,"Nelson",30427,"Horseshoe Mountain"
32,19,937,105844,2332,"2332",37.8385,-78.8922,"2010",322,"White Mountain","Horseshoe Mountain",0.84,"Nelson",30427,"Horseshoe Mountain"
33,20,991,105920,"Sugarloaf Mountain","2268",37.7724,-78.8706,910,"1,358","White Mountain",2332,5.16,"Nelson",30428,"Lovingston"
34,,,105941,"PJs Mound","2258",37.8922,-78.966,"2180",78,"Devils Knob","Meadow Mountain",1.83,"Nelson",30389,"Sherando"
35,21,1018,152562,2246,"2246",37.856,-78.9621,"1856",390,"Three Ridges","Three Ridges",2.17,"Nelson",30427,"Horseshoe Mountain"
36,22,1025,105964,"High Top Mountain","2230",37.8115,-78.9209,"1670",560,"White Mountain","White Mountain",2.02,"Nelson",30427,"Horseshoe Mountain"
37,,"S",105998,2201,"2201",37.8342,-78.957,"1910",291,2246,2246,1.19,"Nelson",30427,"Horseshoe Mountain"
38,23,1076,106035,"Massies Mountain","2168",37.9324,-78.7561,"1350",818,"Heard Mountain","Heard Mountain",1.58,"Albemarle",30390,"Greenfield"
39,24,1077,106036,"Pats Knob","2168",37.8021,-78.9095,"1770",398,"High Top Mountain","High Top Mountain",1.23,"Nelson",30427,"Horseshoe Mountain"
40,,,106075,"Bolton Mountain","2135",37.856,-78.9621,"1856",279,2246,2246,0.81,"Nelson",30427,"Horseshoe Mountain"
41,,,106100,"Cat Rock Mountain","2110",37.8296,-78.9565,"2010",100,2246,2246,0.47,"Nelson",30427,"Horseshoe Mountain"
42,25,1198,106242,"Naked Mountain","2010",37.7552,-78.8466,"1430",580,"Sugarloaf Mountain","Sugarloaf Mountain",2.17,"Nelson",30428,"Lovingston"
43,,"S",106267,1985,"1985",37.7876,-78.8354,"1690",295,"Sugarloaf Mountain","Sugarloaf Mountain",1.17,"Nelson",30428,"Lovingston"
44,26,1231,106293,1951,"1951",37.7763,-78.8255,"1590",361,"Sugarloaf Mountain","Sugarloaf Mountain",0.84,"Nelson",30428,"Lovingston"
45,27,1260,106335,"Pilot Mountain","1924",37.8957,-78.7876,"1070",854,"Boaz Mountains (HP)","Massies Mountain",3.11,"Nelson",30390,"Greenfield"
46,28,1263,106338,1911,"1911",37.9093,-78.7556,"1250",661,"Boaz Mountains (HP)","Boaz Mountains (HP)",1.49,"Nelson",30390,"Greenfield"
47,29,1298,106389,"Archer Mountain","1885",37.9024,-78.7685,"1390",495,1911,1911,1,"Nelson",30390,"Greenfield"
48,,,106397,"Simpson Mountain","1876",37.7818,-78.8433,"1650",226,"Sugarloaf Mountain",1951,0.94,"Nelson",30428,"Lovingston"
49,30,1317,106431,"Willoughby Mountain","1845",37.7962,-78.7963,941,904,"Sugarloaf Mountain","Sugarloaf Mountain",2.34,"Nelson",30428,"Lovingston"
50,31,1323,106438,"Perry Mountain","1831",37.895,-78.8009,"1330",501,"Pilot Mountain","Pilot Mountain",1.03,"Nelson",30390,"Greenfield"
51,32,1335,106454,"Peebles Mountain","1826",37.771,-78.8524,"1510",316,"Sugarloaf Mountain","Naked Mountain",1.17,"Nelson",30428,"Lovingston"
52,,,106484,"Woods Mountain","1803",37.7951,-78.8862,"1550",253,"High Top Mountain","High Top Mountain",1.14,"Nelson",30427,"Horseshoe Mountain"
53,33,1357,106488,"Roberts Mountain","1802",37.8414,-78.8743,"1470",332,2332,2332,1.28,"Nelson",30428,"Lovingston"
54,,,106526,"Mills Mountain","1750",37.7881,-78.915,"1650",100,"Pats Knob","High Top Mountain",0.99,"Nelson",30427,"Horseshoe Mountain"
55,34,1424,106626,"Diggs Mountain","1623",37.8807,-78.7725,930,693,"Archer Mountain","Archer Mountain",2.56,"Nelson",30428,"Lovingston"
56,,,106657,"High Peak","1570",37.7445,-78.8385,"1390",180,"Naked Mountain","Naked Mountain",0.83,"Nelson",30469,"Shipman"
57,,,106662,"Mosby Mountain","1557",37.7759,-78.8113,"1290",267,"Sugarloaf Mountain","Sugarloaf Mountain",1.04,"Nelson",30428,"Lovingston"
58,35,1445,106664,"Becknors Ridge","1550",37.77,-78.9107,"1250",300,"Pats Knob","High Top Mountain",3.09,"Nelson",30427,"Horseshoe Mountain"
59,36,1451,106678,"Ennis Mountain","1516",37.9633,-78.7773,790,726,"Castle Rock","Massies Mountain",3.81,"Nelson",30390,"Greenfield"
60,37,1460,106694,"Mars Knob","1482",37.7899,-78.9493,930,552,"Pats Knob","Pats Knob",2.03,"Nelson",30427,"Horseshoe Mountain"
61,,,106696,"Bryant Mountain","1478",37.7562,-78.9434,"1290",188,"Pats Knob","Becknors Ridge",2.01,"Nelson",30468,"Arrington"
62,38,1462,106697,1471,"1471",37.7694,-79.0577,"1140",331,"Little Priest","Little Priest",3.16,"Nelson",30426,"Massies Mill"
63,39,1471,106714,"Peavine Mountain","1451",37.7492,-78.8052,730,721,"Naked Mountain","Naked Mountain",2.77,"Nelson",30469,"Shipman"
64,,,106718,"Bailey Mountain","1447",37.7847,-78.7841,"1210",237,"Willoughby Mountain","Willoughby Mountain",1.11,"Nelson",30428,"Lovingston"
65,,,106736,"Thompson Mountain","1414",37.7517,-79.0567,"1230",184,1471,1471,1.38,"Nelson",30467,"Piney River"
66,40,1503,106783,"Monasco Mountain","1369",37.7592,-78.7768,730,639,"Peavine Mountain","Peavine Mountain",3.04,"Nelson",30429,"Schuyler"
67,41,1504,106784,"Ball Mountain","1368",37.7607,-78.7496,"1030",338,"Monasco Mountain","Monasco Mountain",0.76,"Nelson",30428,"Lovingston"
68,42,1505,106785,"Rock Spring Mountain","1367",37.8463,-78.7643,750,617,"Diggs Mountain","Diggs Mountain",1.69,"Nelson",30428,"Lovingston"
69,43,1508,106788,"Cabell Mountain","1364",37.7381,-78.9452,970,394,"Pats Knob","Becknors Ridge",1.9,"Nelson",30468,"Arrington"
70,44,1512,106801,"McLean Mountain","1344",37.8769,-78.8684,830,514,"Horseshoe Mountain","Roberts Mountain",2.67,"Nelson",30390,"Greenfield"
71,,,106825,"Little Mountain","1318",37.7385,-79.0543,"1250",68,1471,1471,1.87,"Nelson",30467,"Piney River"
72,45,1532,106850,1285,"1285",37.7643,-79.0296,900,385,1471,1471,1.19,"Nelson",30426,"Massies Mill"
73,46,1542,106880,"Findlay Mountain East","1242",37.7226,-78.7905,890,352,"Peavine Mountain","Peavine Mountain",2.19,"Nelson",30469,"Shipman"
74,47,1550,106892,"Findlay Mountain West","1223",37.6959,-78.8212,750,473,"Findlay Mountain East","Findlay Mountain East",1.3,"Nelson",30469,"Shipman"
75,48,1552,106895,"Hills Mountain","1217",37.8739,-78.8085,770,447,"Perry Mountain","Perry Mountain",1.81,"Nelson",30428,"Lovingston"
76,,,106896,"Turk Mountain","1215",37.8889,-78.7732,"1070",145,"Archer Mountain","Archer Mountain",0.86,"Nelson",30390,"Greenfield"
77,,,106915,"Piney Mountain","1194",37.7274,-78.7882,"1030",164,"Peavine Mountain","Peavine Mountain",0.47,"Nelson",30469,"Shipman"
78,49,1561,106918,1190,"1190",37.7762,-78.9562,850,340,"Mars Knob","Mars Knob",1.15,"Nelson",30427,"Horseshoe Mountain"
79,,,106924,"Thomas Mountain","1188",37.7135,-78.7981,928,260,"Peavine Mountain","Peavine Mountain",0.81,"Nelson",30469,"Shipman"
80,50,1570,106942,"Butler Mountain","1157",37.8252,-78.712,790,367,"Appleberry Mountain","Rock Spring Mountain",3.03,"Nelson",30429,"Schuyler"
81,,,106969,"Welsh Mountain","1116",37.7284,-78.8025,850,266,"Peavine Mountain","Peavine Mountain",0.91,"Nelson",30469,"Shipman"
82,51,1585,106975,"Turner Mountain","1102",37.6676,-78.889,710,392,"Cabell Mountain","Findlay Mountain West",3.38,"Nelson",30468,"Arrington"
83,,,106998,"Edge Hill","1070",37.7493,-78.8593,970,100,"Peebles Mountain","Peebles Mountain",1.09,"Nelson",30469,"Shipman"
84,,,107013,"Bailey Mountain","1033",37.7742,-78.7475,970,63,"Ball Mountain","Ball Mountain",0.82,"Nelson",30429,"Schuyler"
85,,,107030,"Little Piney Mountain",996,37.7439,-78.7712,830,166,"Peavine Mountain","Monasco Mountain",1.51,"Nelson",30469,"Shipman"
86,,,107053,"Crits Mountain",967,37.7082,-78.9304,750,217,"Cabell Mountain","Cabell Mountain",2.95,"Nelson",30468,"Arrington"
87,,,107071,"Diggs Mountain",918,37.7106,-78.9023,710,208,"Cabell Mountain","Cabell Mountain",3.06,"Nelson",30468,"Arrington"
88,,,107102,"Horse Mountain",875,37.6916,-78.7839,610,265,"Findlay Mountain East","Monasco Mountain",3.36,"Nelson",30470,"Howardsville"
89,,,107122,"Buck Mountain",830,37.5764,-78.8648,610,220,"Buffalo Ridge","Spears Mountain",5.92,"Nelson",30509,"Gladstone"
90,,,107144,"Hubbard Hill",770,37.7164,-78.9684,710,60,"Pats Knob","Cabell Mountain",2.31,"Nelson",30468,"Arrington"
91,,,107157,"Bible Ridge",728,37.5682,-78.8511,610,118,"Buffalo Ridge","Spears Mountain",4.76,"Nelson",30509,"Gladstone"
92,,,107159,"Sears Ridge",710,37.5716,-78.8956,650,60,"Buffalo Ridge","Turner Mountain",5.17,"Nelson",30509,"Gladstone"
93,,,107200,"Avon Hill",490,37.7182,-78.6589,410,80,"Findlay Mountain East","Monasco Mountain",5.63,"Nelson",30470,"Howardsville"
0,1,15,17278,"Elliott Knob","4463",38.2761,-79.2877,"2020","2,443","Watering Pond Knob","Paddy Knob",27.05,"Augusta",30331,"Elliott Knob"
1,,,104112,"Hogback","4447",38.164,-79.3167,"4260",187,"Elliott Knob","Elliott Knob",0.54,"Augusta",30331,"Elliott Knob"
2,2,21,17694,"Reddish Knob","4397",38.3928,-79.3971,"2380","2,017","Watering Pond Knob","Panther Knob",15.4,"Augusta",30285,"Reddish Knob"
3,3,28,104122,"Little Bald Knob","4351",38.4384,-79.2553,"3620",731,"Reddish Knob","Reddish Knob",4.8,"Augusta",30284,"Palo Alto"
4,4,31,104129,"Hardscrabble Knob","4282",38.4119,-79.3118,"3060","1,222","Reddish Knob","Little Bald Knob",3.85,"Augusta",30306,"West Augusta"
5,,,104136,"Tearjacket Knob","4229",38.373,-79.3209,"4060",169,"Hardscrabble Knob","Hardscrabble Knob",0.62,"Augusta",30284,"Palo Alto"
6,5,46,104145,4196,"4196",38.3811,-79.3122,"3860",336,"Hardscrabble Knob","Hardscrabble Knob",1.4,"Augusta",30284,"Palo Alto"
7,,,104152,"Timber Ridge","4180",38.461,-79.2358,"4140",40,"Reddish Knob","Reddish Knob",0.42,"Augusta",30285,"Reddish Knob"
8,6,56,104157,"Big Bald Knob","4140",38.3676,-79.3057,"3660",480,"Hardscrabble Knob","Hardscrabble Knob",1.45,"Augusta",30306,"West Augusta"
9,,,104158,"Dyers Knob","4140",38.4551,-79.252,"3980",160,"Reddish Knob","Reddish Knob",0.92,"Augusta",30284,"Palo Alto"
10,,,104173,"Lead-off Ridge","4100",38.1848,-79.301,"3980",120,"Elliott Knob","Elliott Knob",1.79,"Augusta",30331,"Elliott Knob"
11,7,81,104192,"Freezland Flat","4060",38.3722,-79.3356,"3460",600,"Hardscrabble Knob","Hardscrabble Knob",1.35,"Augusta",30306,"West Augusta"
12,,"S",104241,3940,"3940",38.4486,-79.2113,"3660",280,"Reddish Knob","Reddish Knob",2.33,"Augusta",30285,"Reddish Knob"
13,,,104251,"Gordons Peak","3915",38.3489,-79.3051,"3740",175,"Big Bald Knob","Big Bald Knob",1.06,"Augusta",30306,"West Augusta"
14,8,115,104254,"Signal Corps Knob","3906",38.3113,-79.3841,"2940",966,"Freezland Flat","Freezland Flat",5.17,"Augusta",30305,"McDowell"
15,9,117,104257,3900,"3900",38.2841,-79.4058,"3380",520,"Signal Corps Knob","Signal Corps Knob",1.51,"Augusta",30305,"McDowell"
16,10,118,104265,3875,"3875",38.4298,-79.2826,"3540",335,"Reddish Knob","Little Bald Knob",2.15,"Augusta",30284,"Palo Alto"
17,11,127,104279,"Devils Knob","3851",37.9019,-78.9853,"2645","1,206","Three Ridges","Three Ridges",4.32,"Augusta",30389,"Sherando"
18,,,104282,"Pinnacle The","3841",38.3385,-79.3118,"3660",181,"Big Bald Knob","Freezland Flat",1.55,"Augusta",30306,"West Augusta"
19,12,141,104305,"Northeast Peak","3811",38.2153,-79.4802,"3060",751,3900,"Duncan Knob",9.82,"Augusta",30329,"Williamsville"
20,,"S",104314,"Wallace Peak","3795",38.1573,-79.5312,"3500",295,"Northeast Peak","Northeast Peak",0.9,"Augusta",30329,"Williamsville"
21,13,148,104318,"Crawford Mountain","3780",38.2133,-79.2958,"2581","1,199","Elliott Knob","Elliott Knob",5.7,"Augusta",30331,"Elliott Knob"
22,14,152,104323,3776,"3776",38.3391,-79.3644,"3140",636,"Freezland Flat","Freezland Flat",2.09,"Augusta",30306,"West Augusta"
23,,,104336,"Sand Spring Mountain","3740",38.4411,-79.1948,"3620",120,"Reddish Knob","Reddish Knob",3.37,"Augusta",30285,"Reddish Knob"
24,,,104344,"Crawford Knob","3728",38.2389,-79.2693,"3580",148,"Crawford Mountain","Crawford Mountain",0.71,"Augusta",30331,"Elliott Knob"
25,15,165,104349,3700,"3700",38.1859,-79.5043,"3060",640,"Northeast Peak","Northeast Peak",2.49,"Augusta",30330,"Deerfield"
26,16,177,104370,3675,"3675",38.1733,-79.5225,"3260",415,"Northeast Peak","Northeast Peak",1.12,"Augusta",30329,"Williamsville"
27,,,104371,"Peak The","3674",38.3165,-79.3381,"3460",214,"Big Bald Knob",3776,1.62,"Augusta",30306,"West Augusta"
28,,,104379,"Buck Mountain","3665",38.4219,-79.2373,"3500",165,"Little Bald Knob","Little Bald Knob",2.35,"Augusta",30285,"Reddish Knob"
29,17,184,104382,"Cellar Mountain","3660",37.8606,-79.1454,"2860",800,"Elk Pond Mountain","Maintop Mountain",7.77,"Augusta",30388,"Big Levels"
30,18,192,104397,"Bump The","3634",38.2306,-79.4277,"3060",574,3900,3700,2.64,"Augusta",30330,"Deerfield"
31,19,196,104405,"Humpback Mountain","3620",37.9402,-78.9317,"2900",720,"Devils Knob","Devils Knob",3.78,"Augusta",30389,"Sherando"
32,,,104415,"Chestnut Ridge","3620",38.3951,-79.2379,"3540",80,"Little Bald Knob","Little Bald Knob",1.2,"Augusta",30285,"Reddish Knob"
33,20,204,104427,"Bald Mountain","3587",37.9445,-79.0595,"3180",407,"Cellar Mountain","Cellar Mountain",3.23,"Augusta",30388,"Big Levels"
34,,,104440,"Tims Knob","3580",38.2618,-79.4003,"3540",40,3900,3900,0.98,"Augusta",30305,"McDowell"
35,21,230,104465,3540,"3540",38.1997,-79.495,"3220",320,3700,3700,1.11,"Augusta",30330,"Deerfield"
36,22,238,104486,"Hankey Mountain","3500",38.3285,-79.2786,"2300","1,200","Big Bald Knob","Big Bald Knob",3.93,"Augusta",30307,"Stokesville"
37,23,240,153278,3500,"3500",38.2183,-79.4512,"3060",440,"Bump The","Bump The",1.5,"Augusta",30330,"Deerfield"
38,24,243,104498,"Mine Bank Mountain","3488",37.9125,-79.0944,"3180",308,"Bald Mountain","Cellar Mountain",1.8,"Augusta",30388,"Big Levels"
39,,,104513,"Flint Mountain","3460",37.932,-79.0449,"3220",240,"Bald Mountain","Bald Mountain",1.43,"Augusta",30388,"Big Levels"
40,,,104562,"Archer Knob","3403",38.1294,-79.3755,"3140",263,"Elliott Knob","Elliott Knob",4.55,"Augusta",30356,"Craigsville"
41,,,104621,"Long Drive Mountain","3340",37.9035,-79.1172,"3100",240,"Bald Mountain","Mine Bank Mountain",1.32,"Augusta",30388,"Big Levels"
42,,,104655,"Kelley Mountain","3300",37.9359,-79.032,"3140",160,"Bald Mountain","Bald Mountain",2.37,"Augusta",30388,"Big Levels"
43,25,353,104715,"Walker Mountain","3221",38.1661,-79.4646,"2140","1,081","Northeast Peak",3700,3.94,"Augusta",30330,"Deerfield"
44,,,104732,"Short Ridge","3220",38.1558,-79.5073,"3060",160,"Northeast Peak","Northeast Peak",1.1,"Augusta",30329,"Williamsville"
45,26,370,104751,"Meadow Mountain","3196",37.8845,-78.9922,"2740",456,"Three Ridges","Three Ridges",2.16,"Augusta",30389,"Sherando"
46,,,104764,"Hearthstone Ridge","3182",38.4178,-79.1802,"3140",42,"Reddish Knob","Little Bald Knob",4.54,"Augusta",30285,"Reddish Knob"
47,,,104786,"Big Spy Mountain","3170",37.9033,-79.1308,"2890",280,"Bald Mountain",3490,1.94,"Augusta",30387,"Vesuvius"
48,,,192793,"Rocks The","3150",37.9608,-78.9005,"3130",20,"Humpback Mountain","Humpback Mountain",0.86,"Augusta",30389,"Sherando"
49,27,406,104811,"Little North Mountain","3140",37.9692,-79.4187,"2390",750,"Jump Rock","Elliott Knob",5.82,"Augusta",30357,"Augusta Springs"
50,,,104821,"Big Ridge","3140",38.3931,-79.2107,"2980",160,"Little Bald Knob","Little Bald Knob",2.78,"Augusta",30285,"Reddish Knob"
51,,,104839,"McKittricks Ridge","3111",38.2487,-79.2505,"3060",51,"Crawford Mountain","Crawford Mountain",1.56,"Augusta",30332,"Churchville"
52,28,422,104857,3100,"3100",38.2068,-78.7494,"2321",779,"Trayfoot Mountain","Bucks Elbow Mountain",3.05,"Albemarle",30335,"Crimora"
53,,,104866,"Knob of Rocks","3100",37.9254,-79.0768,"3060",40,"Bald Mountain","Bald Mountain",1,"Augusta",30388,"Big Levels"
54,,,104920,"Donald Fauber Mountain","3058",37.9614,-79.0516,"3020",38,"Cellar Mountain","Bald Mountain",3.22,"Augusta",30388,"Big Levels"
55,29,460,104924,3052,"3052",38.1014,-79.2632,"2700",352,"Little North Mountain","Elliott Knob",3.1,"Augusta",30331,"Elliott Knob"
56,,,104941,"Russell Rock","3035",37.9642,-79.0819,"2980",55,"Cellar Mountain","Cellar Mountain",2.37,"Augusta",30388,"Big Levels"
57,30,469,104951,"Groahs Ridge","3030",37.8984,-79.1533,"2670",360,"Bald Mountain",3490,1.88,"Augusta",30387,"Vesuvius"
58,31,501,105009,"Turk Mountain","2981",38.1274,-78.7922,"2460",521,3100,3100,1.79,"Augusta",30335,"Crimora"
59,32,507,105014,2980,"2980",37.885,-79.0095,"2620",360,"Meadow Mountain","Bald Mountain",2.09,"Augusta",30388,"Big Levels"
60,,"S",105021,2980,"2980",38.1774,-78.7651,"2700",280,3100,"Trayfoot Mountain",2.88,"Albemarle",30335,"Crimora"
61,,,105032,"Kennedy Ridge","2980",37.9551,-79.0357,"2940",40,"Bald Mountain","Bald Mountain",3.07,"Augusta",30388,"Big Levels"
62,33,513,105034,"Calf Mountain","2974",38.0948,-78.7731,"2420",554,"Bucks Elbow Mountain","Bucks Elbow Mountain",2.67,"Albemarle",30361,"Waynesboro East"
63,,,105062,"Rocks Mountain","2945",38.1864,-78.7691,"2700",245,3100,3100,2.84,"Augusta",30335,"Crimora"
64,34,540,105073,2940,"2940",37.8924,-79.0219,"2620",320,2980,"Meadow Mountain",0.96,"Augusta",30388,"Big Levels"
65,,,105091,"Wolf Ridge","2935",38.4459,-79.1722,"2820",115,"Reddish Knob","Reddish Knob",4.53,"Augusta",30285,"Reddish Knob"
66,,,105108,"Middle Mountain","2924",38.3815,-79.1983,"2700",224,"Little Bald Knob","Little Bald Knob",3.8,"Augusta",30285,"Reddish Knob"
67,,,140516,"""Little Calf Mountain""","2910",38.08,-78.7892,"2820",90,"Calf Mountain","Calf Mountain",0.68,"Albemarle",30361,"Waynesboro East"
68,,,105132,"Big Knob","2900",38.0296,-79.364,"2717",183,"Little North Mountain","Little North Mountain",5.94,"Augusta",30357,"Augusta Springs"
69,,,105136,"Calvary Rocks","2900",38.1844,-78.7758,"2820",80,3100,"Trayfoot Mountain",2.95,"Augusta",30335,"Crimora"
70,,,105139,"Mad Lick Ridge","2900",38.2963,-79.3407,"2860",40,"Big Bald Knob",3776,2.5,"Augusta",30306,"West Augusta"
71,35,577,105154,"Bear Den Mountain","2885",38.0729,-78.7932,"2540",345,"Calf Mountain","Calf Mountain",1.32,"Albemarle",30361,"Waynesboro East"
72,36,590,105173,"Lookout Mountain","2860",38.335,-79.1793,"2460",400,"Hankey Mountain","Hankey Mountain",3.99,"Augusta",30307,"Stokesville"
73,,,105187,"Haycock Knob","2860",38.1646,-79.3437,"2740",120,"Elliott Knob","Elliott Knob",1.87,"Augusta",30331,"Elliott Knob"
74,,,105192,"Torry Ridge","2860",37.9187,-79.0365,"2820",40,"Bald Mountain","Bald Mountain",1.64,"Augusta",30388,"Big Levels"
75,,,105213,"Coalpit Knob","2841",38.2492,-79.2863,"2700",141,"Crawford Mountain","Crawford Mountain",1.08,"Augusta",30306,"West Augusta"
76,37,639,105264,"Elkhorn Mountain","2810",38.3411,-79.2331,"2220",590,"Little Bald Knob","Hankey Mountain",1.86,"Augusta",30307,"Stokesville"
77,,,105277,"Chestnut Oak Knob","2798",38.2995,-79.274,"2580",218,"Hankey Mountain","Hankey Mountain",2.44,"Augusta",30306,"West Augusta"
78,38,653,105290,"Torry Mountain","2781",37.936,-78.99,"2420",361,"Bald Mountain","Devils Knob",2.29,"Augusta",30389,"Sherando"
79,39,654,105291,"Trimble Mountain","2780",38.3557,-79.2177,"2100",680,"Little Bald Knob","Elkhorn Mountain",1.03,"Augusta",30307,"Stokesville"
80,40,674,105327,"Scott Mountain","2762",38.0598,-78.8177,"2460",302,"Bear Den Mountain","Bear Den Mountain",1.43,"Albemarle",30361,"Waynesboro East"
81,41,699,105379,"Dobie Mountain","2712",37.9685,-78.8967,"2380",332,"Humpback Mountain","Humpback Mountain",1.98,"Augusta",30389,"Sherando"
82,,"S",105394,"Grindstone Mountain","2702",38.3704,-79.194,"2420",282,"Little Bald Knob","Lookout Mountain",1.81,"Augusta",30307,"Stokesville"
83,,,105410,"Grooms Ridge","2700",38.3923,-79.1766,"2660",40,"Little Bald Knob","Trimble Mountain",3.43,"Augusta",30285,"Reddish Knob"
84,,,105409,"Littlefield Ridge","2700",38.3163,-79.3142,"2660",40,"Big Bald Knob",3776,2.59,"Augusta",30306,"West Augusta"
85,42,714,105413,2697,"2697",38.1705,-79.2442,"2350",347,3052,3052,2.71,"Augusta",30332,"Churchville"
86,43,734,105448,"Elk Mountain","2660",37.9819,-78.9072,"2140",520,"Dobie Mountain","Dobie Mountain",1.62,"Augusta",30360,"Waynesboro West"
87,,,105470,"Little Spy Mountain","2658",37.9171,-79.1441,"2530",128,"Bald Mountain","Groahs Ridge",0.86,"Augusta",30387,"Vesuvius"
88,,,105491,"Dunkard Ridge","2626",38.4192,-79.1671,"2580",46,"Reddish Knob","Reddish Knob",5.07,"Augusta",30285,"Reddish Knob"
89,,,105542,"Sawmill Ridge","2582",38.1124,-78.8061,"2380",202,"Turk Mountain","Turk Mountain",1.36,"Augusta",30361,"Waynesboro East"
90,44,796,105572,2550,"2550",38.1988,-79.2461,"1950",600,"Elliott Knob",2697,1.1,"Augusta",30332,"Churchville"
91,,,105608,"Camp Ridge","2522",38.2893,-79.2625,"2300",222,"Hankey Mountain","Hankey Mountain",2.24,"Augusta",30306,"West Augusta"
92,45,835,105656,2485,"2485",38.4116,-79.1468,"2020",465,"Reddish Knob","Lookout Mountain",4.69,"Augusta",30285,"Reddish Knob"
93,,,105681,"Wildcat Ridge","2460",38.1554,-78.7883,"2420",40,3100,3100,1.21,"Augusta",30335,"Crimora"
94,,,105690,"Afton Mountain","2450",38.0142,-78.8823,"2252",198,"Elk Mountain","Elk Mountain",1.34,"Augusta",30360,"Waynesboro West"
95,,,105756,"Stony Ridge","2385",38.0206,-78.8891,"2270",115,"Elk Mountain","Elk Mountain",1.55,"Augusta",30360,"Waynesboro West"
96,46,925,105815,"Little North Mountain","2345",38.291,-79.194,"1860",485,"Hankey Mountain","Lookout Mountain",3.45,"Augusta",30307,"Stokesville"
97,,,105982,"Bettys Hill","2220",38.1477,-79.4293,"2060",160,"Walker Mountain","Walker Mountain",0.93,"Augusta",30330,"Deerfield"
98,47,1041,105986,"Sugarloaf","2217",38.0388,-79.2648,"1860",357,"Little North Mountain",3052,5.11,"Augusta",30358,"Greenville"
99,48,1046,105991,2210,"2210",38.0741,-79.2028,"1910",300,"Sugarloaf","Sugarloaf",4.25,"Augusta",30358,"Greenville"
100,,,106023,"Turkey Pen Ridge","2180",37.9421,-79.0054,"2020",160,"Bald Mountain","Torry Mountain",1.32,"Augusta",30388,"Big Levels"
101,,,106037,"Pine Ridge","2165",37.9788,-78.9168,"2140",25,"Elk Mountain","Dobie Mountain",1.47,"Augusta",30389,"Sherando"
102,49,1089,106048,"Ramsey Mountain","2150",38.0871,-78.8131,"1610",540,"Calf Mountain","Calf Mountain",2.09,"Augusta",30361,"Waynesboro East"
103,,,106074,"Davis Mountain","2140",38.1646,-78.8031,"2100",40,3100,3100,2.19,"Augusta",30335,"Crimora"
104,50,1106,106078,"Buck Hill","2130",38.3107,-79.1712,"1660",470,"Hankey Mountain","Little North Mountain",1.81,"Augusta",30307,"Stokesville"
105,,,106085,"Burnt Hill","2130",37.9776,-79.2479,"2070",60,2210,"Pisgah Hill",3.88,"Augusta",30386,"Brownsburg"
106,,,106099,"JJJ Mountain","2110",38.0064,-78.8988,"1870",240,"Elk Mountain","Elk Mountain",0.93,"Augusta",30360,"Waynesboro West"
107,,,106107,"Thorofare Ridge","2106",38.1517,-78.8005,"1900",206,3100,"Turk Mountain",1.84,"Augusta",30335,"Crimora"
108,,,106154,"Horsehead Mountain","2078",38.2047,-78.774,"1860",218,"Trayfoot Mountain","Hall Mountain",2.03,"Augusta",30335,"Crimora"
109,51,1170,106182,"Brown Ridge","2060",38.098,-79.314,"1740",320,"Little North Mountain","Little North Mountain",2.63,"Augusta",30357,"Augusta Springs"
110,,,106286,"Laurel Hill","1970",37.9896,-79.2937,"1850",120,2210,"Pisgah Hill",2.09,"Augusta",30386,"Brownsburg"
111,,,106305,"Miller Hill","1950",37.9845,-79.2862,"1790",160,2210,"Pisgah Hill",1.47,"Augusta",30386,"Brownsburg"
112,,,106306,"Newport Hill","1950",38.0009,-79.2902,"1820",130,2210,"Pisgah Hill",2.43,"Augusta",30386,"Brownsburg"
113,,,106311,"Miller Knob","1948",38.0344,-78.9007,"1730",218,"Elk Mountain","Elk Mountain",2.85,"Augusta",30360,"Waynesboro West"
114,52,1282,106371,1897,"1897",38.0098,-78.9081,"1590",307,"Elk Mountain","Elk Mountain",1.64,"Augusta",30360,"Waynesboro West"
115,,"S",106394,1879,"1879",38.0488,-78.8557,"1580",299,"Scott Mountain","Scott Mountain",1.97,"Augusta",30361,"Waynesboro East"
116,,,106485,"Stony Hill","1803",38.1141,-79.1993,"1792",11,"Sugarloaf","Sugarloaf",1.07,"Augusta",30358,"Greenville"
117,,,106503,"Chestnut Ridge","1775",38.0886,-79.116,"1650",125,2210,"Sugarloaf",4.26,"Augusta",30359,"Stuarts Draft"
118,53,1373,106521,"Round Hill","1753",38.0502,-79.0163,"1450",303,2210,"Betsey Bell",6.1,"Augusta",30359,"Stuarts Draft"
119,54,1375,106523,"Wise Hill","1750",38.3282,-78.987,"1310",440,"Buck Hill","Mole Hill",8.15,"Augusta",30309,"Mount Sidney"
120,55,1379,106533,"Mikes Knob","1740",38.0822,-78.8356,"1430",310,"Scott Mountain","Ramsey Mountain",1.42,"Augusta",30361,"Waynesboro East"
121,,,106555,"Huckleberry Hill","1710",38.2042,-79.083,"1630",80,2210,"Betsey Bell",4.72,"Augusta",30333,"Staunton"
122,,,106584,"Trinity Point","1675",38.1987,-79.1566,"1550",125,2210,2550,4.14,"Augusta",30332,"Churchville"
123,,,106612,"Cave Hill","1641",38.0605,-78.9848,"1430",211,2210,"Round Hill",2.08,"Augusta",30360,"Waynesboro West"
124,56,1422,106618,"Round Hill","1630",38.1743,-78.8869,"1290",340,2210,"Turk Mountain",6.86,"Augusta",30334,"Fort Defiance"
125,,,106621,"Hickory Hill","1630",38.0592,-78.9824,"1430",200,2210,"Round Hill",3.63,"Augusta",30360,"Waynesboro West"
126,,,106637,"Castle Hill","1610",38.3431,-79.0956,"1450",160,"Buck Hill","Lookout Mountain",4.29,"Augusta",30308,"Parnassus"
127,,,106640,"Gibson Hill","1598",38.078,-78.9675,"1430",168,2210,"Round Hill",3.14,"Augusta",30360,"Waynesboro West"
128,,,106651,"Sidney Mount","1581",38.2597,-78.9757,"1450",131,"Buck Hill","Wise Hill",5.07,"Augusta",30309,"Mount Sidney"
129,,,106674,"Kiser Hill","1523",38.0974,-78.9246,"1430",93,2210,"Mikes Knob",4.58,"Augusta",30360,"Waynesboro West"
130,,,106693,"Kennedy Ridge","1486",38.1582,-78.8928,"1310",176,2210,"Round Hill",1.71,"Augusta",30334,"Fort Defiance"
131,,,106702,"Rough Hill","1467",38.1435,-78.9071,"1350",117,2210,"Round Hill",2.97,"Augusta",30334,"Fort Defiance"
132,,,106705,"Patterson Ridge","1465",38.2145,-78.8546,"1230",235,2210,"Round Hill",3.74,"Augusta",30335,"Crimora"
133,,,214343,"Natural Chimneys","1410",38.3584,-79.0826,"1370",40,"Buck Hill",2485,4.35,"Augusta",30308,"Parnassus"
134,,,106751,"Cave Hill","1398",38.2455,-78.8423,"1170",228,2210,"Hall Mountain",4.05,"Augusta",30310,"Grottoes"
0,,,104389,"Greene County HP","3660",38.4756,-78.4531,"3660",0,"Hazeltop","Hazeltop",0.21,"Greene",30291,"Fletcher"
1,1,197,104406,3620,"3620",38.4156,-78.4881,"3140",480,"Hazeltop","Hazeltop",6.08,"Greene",30290,"Elkton East"
2,2,203,104426,"Hightop","3587",38.3568,-78.5458,"2380","1,207",3620,3620,5.17,"Greene",30312,"Swift Run Gap"
3,3,208,104431,"Bearfence Mountain","3580",38.4615,-78.4613,"3220",360,"Hazeltop","Hazeltop",2.29,"Greene",30291,"Fletcher"
4,4,217,104450,"Lewis Mountain","3569",38.447,-78.4698,"3247",322,"Bearfence Mountain","Bearfence Mountain",1.17,"Greene",30291,"Fletcher"
5,,,104475,"Bush Mountain","3527",38.4524,-78.4651,"3375",152,"Bearfence Mountain","Bearfence Mountain",0.6,"Greene",30291,"Fletcher"
6,,,104573,"Bald Face Mountain","3390",38.3931,-78.5106,"3260",130,3620,3620,0.85,"Greene",30290,"Elkton East"
7,5,284,104585,"Saddleback Mountain","3375",38.3834,-78.518,"2942",433,3620,3620,2.37,"Greene",30312,"Swift Run Gap"
8,6,299,104611,"Flattop Mountain","3340",38.3215,-78.5914,"2294","1,046","Hightop","Hightop",4.09,"Greene",30312,"Swift Run Gap"
9,,,104823,"Cliff Mountain","3140",38.4439,-78.4541,"3100",40,"Bearfence Mountain","Bearfence Mountain",0.71,"Greene",30291,"Fletcher"
10,7,425,104894,3100,"3100",38.2714,-78.662,"2740",360,"Big Flat Mountain","Big Flat Mountain",2.14,"Albemarle",30311,"McGaheysville"
11,8,517,105044,"Roundtop","2966",38.3286,-78.5753,"2622",344,"Hightop","Hightop",1.75,"Greene",30312,"Swift Run Gap"
12,9,587,105170,"Weaver Mountain","2864",38.2921,-78.6432,"2540",324,3100,"Flattop Mountain",1.5,"Greene",30311,"McGaheysville"
13,,,105423,"Lighted Top","2685",38.4545,-78.4453,"2540",145,"Bearfence Mountain","Cat Knob",1.2,"Greene",30291,"Fletcher"
14,,"S",106525,"Brokenback Mountain","1750",38.2618,-78.5777,"1460",290,"Flattop Mountain","County Line Mountain",2.89,"Greene",30312,"Swift Run Gap"
15,10,1384,106540,"Powell Mountain","1730",38.3294,-78.4882,"1310",420,"Saddleback Mountain","Saddleback Mountain",3.02,"Greene",30313,"Stanardsville"
16,,,106559,"Daniels Mountain","1704",38.3122,-78.5179,"1660",44,"Hightop","Powell Mountain",1.54,"Greene",30312,"Swift Run Gap"
17,,,106592,"Slaters Mountain","1660",38.2927,-78.553,"1460",200,"Hightop","Flattop Mountain",2.99,"Greene",30312,"Swift Run Gap"
18,11,1468,106710,"Parker Mountain","1454",38.2943,-78.497,750,704,"Hightop","Powell Mountain",2.61,"Greene",30312,"Swift Run Gap"
19,12,1509,106791,"Barnet Mountain","1350",38.3686,-78.4438,905,445,3620,"Kirtley Mountain",3.04,"Greene",30313,"Stanardsville"
20,,"S",106796,"Little Ledge Mountain","1349",38.3161,-78.462,"1050",299,"Saddleback Mountain","Powell Mountain",2.03,"Greene",30313,"Stanardsville"
21,13,1518,106819,"Bingham Mountain","1329",38.2426,-78.5412,670,659,"Flattop Mountain","Parker Mountain",3.63,"Greene",30337,"Free Union"
22,,,106834,"Turkey Ridge","1310",38.3263,-78.4702,"1270",40,"Saddleback Mountain","Powell Mountain",1.06,"Greene",30313,"Stanardsville"
23,14,1598,106994,"Jarrell Mountain","1070",38.3457,-78.4333,770,300,3620,"Barnet Mountain",1.72,"Greene",30313,"Stanardsville"
24,,,107003,"Goodall Mountain","1063",38.3354,-78.4289,830,233,3620,"Jarrell Mountain",0.56,"Greene",30313,"Stanardsville"
25,,,107034,"Teel Mountain",990,38.3521,-78.4405,830,160,3620,"Barnet Mountain",0.76,"Greene",30313,"Stanardsville"
26,,,107044,"Hunt Mountain",980,38.2912,-78.5314,900,80,"Hightop","Parker Mountain",1.59,"Greene",30312,"Swift Run Gap"
27,,,107058,"Crow Mountain",950,38.2791,-78.4795,670,280,"Parker Mountain","Parker Mountain",1.49,"Greene",30313,"Stanardsville"
28,,,107105,"Runkle Mountain",870,38.2985,-78.4818,770,100,"Powell Mountain","Parker Mountain",1.14,"Greene",30313,"Stanardsville"
29,,,107110,"Little Mountain",860,38.2847,-78.5282,780,80,"Hightop","Parker Mountain",1.4,"Greene",30312,"Swift Run Gap"
30,,,107132,"Chapman Mountain",810,38.2631,-78.495,610,200,"Parker Mountain","Parker Mountain",1.87,"Greene",30313,"Stanardsville"
0,1,1557,106912,"Cowherd Mountain","1197",38.1542,-78.2492,690,507,"Peters Mountain","Peters Mountain",3.57,"Orange",30340,"Gordonsville"
1,2,1583,106973,"Merry Mountain","1109",38.1653,-78.1978,570,539,"Cowherd Mountain","Cowherd Mountain",3.47,"Orange",30340,"Gordonsville"
2,3,1593,106990,"Clark Mountain","1082",38.2866,-78.0217,510,572,"Merry Mountain","Thorofare Mountain",10.96,"Orange",30316,"Rapidan"
3,,,107040,"Gibson Mountain",988,38.1781,-78.1682,810,178,"Merry Mountain","Merry Mountain",1.36,"Orange",30340,"Gordonsville"
4,,,107046,"Scott Mountain",973,38.1861,-78.16,830,143,"Merry Mountain","Merry Mountain",0.84,"Orange",30340,"Gordonsville"
5,4,1611,107075,"Hardwick Mountain",913,38.1698,-78.2965,530,383,"Peters Mountain","Cowherd Mountain",2.66,"Orange",30339,"Barboursville"
6,5,1616,107100,"Jerdone Mountain",882,38.2519,-78.1065,510,372,"Merry Mountain","Clark Mountain",4.98,"Orange",30316,"Rapidan"
7,,,107107,"Cameron Mountain",864,38.1583,-78.1969,690,174,"Merry Mountain","Merry Mountain",1.87,"Orange",30340,"Gordonsville"
8,,,107121,"Chicken Mountain",830,38.1912,-78.1604,610,220,"Merry Mountain","Merry Mountain",2.34,"Orange",30340,"Gordonsville"
9,,,107151,"Smith Hill",750,38.1921,-78.1728,650,100,"Merry Mountain","Merry Mountain",1.21,"Orange",30340,"Gordonsville"
10,,,107241,"Shotgun Hill",345,38.345,-77.737,335,10,"Jerdone Mountain","Pony Mount",14.01,"Orange",30319,"Chancellorsville"
0,,,107184,"Louisa County HP",575,37.952,-78.1705,515,60,"Peters Mountain","Walnut Mountain",14.66,"Louisa",30395,"Zion Crossroads"
1,,,107197,"Louisa Prominence Point",515,38.0223,-77.989,435,80,"Merry Mountain","Merry Mountain",15.79,"Louisa",30368,"Mineral"
2,,,107252,"Green Bottle Hill",295,38.0115,-77.7789,285,10,"Merry Mountain","Jerdone Mountain",23.11,"Louisa",30369,"Lake Anna West"
0,1,87,17509,"Hawksbill","4050",38.0315,-78.858,"1902","2,148","Rocky Mountain","Dundore Mountain",40.11,"Madison",30271,"Big Meadows"
1,2,97,104215,"Stony Man","4011",38.5774,-78.3832,"3340",671,"Hawksbill","Hawksbill",3.19,"Madison",30272,"Old Rag Mountain"
2,3,120,104268,"Fork Mountain","3860",38.5336,-78.421,"3060",800,"Hawksbill","Hawksbill",5.39,"Madison",30291,"Fletcher"
3,4,139,104303,"Hazeltop","3812",38.4726,-78.4389,"3220",592,"Fork Mountain","Fork Mountain",1.94,"Madison",30291,"Fletcher"
4,5,156,104331,"Blackrock","3740",38.5003,-78.4459,"3260",480,"Hazeltop","Hawksbill",3.21,"Madison",30271,"Big Meadows"
5,,,104335,"Spitler Hill","3740",38.5435,-78.3935,"3620",120,"Hawksbill","Hawksbill",1.04,"Madison",30271,"Big Meadows"
6,6,170,104353,"Cat Knob","3700",38.4747,-78.4237,"3340",360,"Fork Mountain","Fork Mountain",1.1,"Madison",30291,"Fletcher"
7,7,171,104354,"Bettys Rock","3700",38.5566,-78.3864,"3361",339,"Hawksbill","Hawksbill",1.13,"Madison",30271,"Big Meadows"
8,,,104389,"Greene County HP","3660",38.4756,-78.4531,"3660",0,"Hazeltop","Hazeltop",0.21,"Greene",30291,"Fletcher"
9,,,104412,"Stony Mountain","3620",38.5126,-78.4203,"3500",120,"Blackrock","Blackrock",1.76,"Madison",30271,"Big Meadows"
10,,,214341,"Little Stony Man","3590",38.6026,-78.3679,"3570",20,"Stony Man","Stony Man",0.44,"Madison",30272,"Old Rag Mountain"
11,,,104436,"Pollock Knob","3580",38.5847,-78.3849,"3500",80,"Stony Man","Bettys Rock",1.06,"Madison",30271,"Big Meadows"
12,8,229,104464,"Bluff Mountain","3540",38.4487,-78.4126,"3180",360,"Cat Knob","Cat Knob",2.2,"Madison",30291,"Fletcher"
13,,,104501,"Jones Mountain","3482",38.4635,-78.4252,"3380",102,"Cat Knob","Cat Knob",0.75,"Madison",30291,"Fletcher"
14,9,255,104523,"Doubletop Mountain","3455",38.4989,-78.4085,"2740",715,"Blackrock","Fork Mountain",1.51,"Madison",30291,"Fletcher"
15,10,274,104564,"Thorofare Mountain","3401",38.5869,-78.3529,"3060",341,"Stony Man","Stony Man",1.83,"Madison",30272,"Old Rag Mountain"
16,11,322,104659,"Robertson Mountain","3296",38.5745,-78.3493,"2780",516,"Stony Man","Thorofare Mountain",1.36,"Madison",30272,"Old Rag Mountain"
17,12,324,104662,"Old Rag Mountain","3291",38.5571,-78.3319,"1900","1,391","Robertson Mountain","Robertson Mountain",1.99,"Madison",30272,"Old Rag Mountain"
18,,"S",104726,3220,"3220",38.4892,-78.3925,"2940",280,"Doubletop Mountain","Doubletop Mountain",0.74,"Madison",30291,"Fletcher"
19,,,104940,"Bear Church Rock","3035",38.4497,-78.3995,"2940",95,"Bluff Mountain","Bluff Mountain",1.29,"Madison",30291,"Fletcher"
20,,,105085,"Pinnacle Ridge","2940",38.6086,-78.3267,"2900",40,"Pinnacle The","Catlett Mountain",1.23,"Madison",30272,"Old Rag Mountain"
21,,"S",153094,2860,"2860",38.5431,-78.3266,"2580",280,"Old Rag Mountain","Old Rag Mountain",1.06,"Madison",30272,"Old Rag Mountain"
22,13,776,105528,"Kirtley Mountain","2593",38.4224,-78.4208,"1820",773,"Bluff Mountain","Bluff Mountain",2.85,"Madison",30291,"Fletcher"
23,14,906,105787,"Buzzard Rocks","2374",38.408,-78.4123,"1940",434,"Kirtley Mountain","Kirtley Mountain",1.3,"Madison",30291,"Fletcher"
24,15,916,105803,"Big Tom","2358",38.5055,-78.379,"1940",418,"Doubletop Mountain","Doubletop Mountain",1.57,"Madison",30272,"Old Rag Mountain"
25,16,962,105872,2300,"2300",38.4614,-78.3806,"1940",360,"Fork Mountain","Bluff Mountain",2.58,"Madison",30291,"Fletcher"
26,17,1043,105988,"Sag Top","2210",38.4511,-78.3581,"1510",700,"Doubletop Mountain",2300,1.56,"Madison",30292,"Madison"
27,18,1090,106049,"Utz Hightop","2150",38.4389,-78.3427,"1630",520,"Sag Top","Sag Top",1.51,"Madison",30292,"Madison"
28,,,106275,"Buzzard Rocks","1980",38.5207,-78.3609,"1940",40,"Hawksbill","Big Tom",1.19,"Madison",30272,"Old Rag Mountain"
29,,,106393,"Chapman Mountain","1882",38.4653,-78.363,"1870",12,"Doubletop Mountain",2300,0.81,"Madison",30292,"Madison"
30,19,1322,106437,"Flattop Ridge","1835",38.4192,-78.3969,"1420",415,"Bluff Mountain","Kirtley Mountain",1.73,"Madison",30291,"Fletcher"
31,,,214372,"Lindsay Mountain","1784",38.5759,-78.3098,"1740",44,"Thorofare Mountain","Old Rag Mountain",1.71,"Madison",30272,"Old Rag Mountain"
32,20,1397,106562,"Graves Mountain","1700",38.5078,-78.3518,"1180",520,"Hawksbill","Big Tom",1.3,"Madison",30272,"Old Rag Mountain"
33,,,106573,"Allen Mountain","1690",38.3789,-78.4094,"1420",270,"Kirtley Mountain","Kirtley Mountain",2.18,"Madison",30313,"Stanardsville"
34,21,1406,106580,"Berry Mountain","1679",38.3947,-78.3424,"1310",369,"Utz Hightop","Flattop Ridge",2.52,"Madison",30292,"Madison"
35,,,106607,"Baldtop","1647",38.41,-78.3305,"1450",197,"Utz Hightop","Utz Hightop",1.46,"Madison",30292,"Madison"
36,,"S",106628,1620,"1620",38.5179,-78.3188,"1340",280,"Old Rag Mountain","Graves Mountain",1.88,"Madison",30272,"Old Rag Mountain"
37,,,106665,"Gallihugh Mountain","1550",38.416,-78.3228,"1310",240,"Utz Hightop","Utz Hightop",1.38,"Madison",30292,"Madison"
38,22,1454,106684,"Mitchells Mountain","1504",38.5074,-78.2728,732,772,"Old Rag Mountain","Old Rag Mountain",5.41,"Madison",30293,"Brightwood"
39,23,1481,106732,"Dulaney Mountain","1420",38.5009,-78.2499,860,560,"Mitchells Mountain","Mitchells Mountain",1.21,"Madison",30272,"Old Rag Mountain"
40,,,106745,"Deal Ridge","1410",38.3968,-78.3388,"1370",40,"Utz Hightop","Berry Mountain",0.94,"Madison",30292,"Madison"
41,24,1495,106769,"Carpenter Mountain","1377",38.4912,-78.306,810,567,"Old Rag Mountain","Dulaney Mountain",2.84,"Madison",30292,"Madison"
42,25,1499,106775,"Yager Mountain","1370",38.4087,-78.3072,770,600,"Utz Hightop","Berry Mountain",2.61,"Madison",30292,"Madison"
43,26,1514,106806,1340,"1340",38.5083,-78.3122,"1020",320,"Old Rag Mountain","Carpenter Mountain",1.75,"Madison",30272,"Old Rag Mountain"
44,,,106815,"Aylor Mountain","1330",38.4965,-78.2376,"1170",160,"Mitchells Mountain","Mitchells Mountain",0.4,"Madison",30293,"Brightwood"
45,,,106820,"Burnt Ridge","1329",38.3854,-78.3345,"1270",59,"Berry Mountain","Berry Mountain",0.63,"Madison",30292,"Madison"
46,27,1527,106831,"Tippets Mountain","1310",38.367,-78.3335,"1010",300,"Berry Mountain","Berry Mountain",1.75,"Madison",30314,"Rochelle"
47,,,106867,"Adam Yowell Mountain","1260",38.5042,-78.2568,"1140",120,"Dulaney Mountain","Dulaney Mountain",0.51,"Madison",30272,"Old Rag Mountain"
48,28,1540,106869,1250,"1250",38.5182,-78.2281,930,320,"Mitchells Mountain","Mitchells Mountain",1.91,"Madison",30273,"Woodville"
49,29,1548,106890,"Thorofare Mountain","1224",38.4716,-78.1684,570,654,"Mitchells Mountain","Mitchells Mountain",7.4,"Madison",30293,"Brightwood"
50,,,106916,"Beamers Head","1193",38.4167,-78.2927,950,243,"Yager Mountain","Yager Mountain",1.71,"Madison",30292,"Madison"
51,30,1567,106939,1165,"1165",38.5177,-78.2876,810,355,1340,1340,1.22,"Madison",30272,"Old Rag Mountain"
52,,,106959,"Utz Mountain","1130",38.4988,-78.2927,870,260,1340,1340,0.77,"Madison",30292,"Madison"
53,31,1582,106970,"Deal Mountain","1110",38.4878,-78.2777,670,440,"Dulaney Mountain","Carpenter Mountain",1.27,"Madison",30292,"Madison"
54,32,1584,106974,"Neal Mountain","1107",38.3348,-78.3563,690,417,"Berry Mountain","Tippets Mountain",2.87,"Madison",30314,"Rochelle"
55,33,1606,107031,"Banks Mountain",991,38.35,-78.3595,690,301,"Berry Mountain","Neal Mountain",1.26,"Madison",30314,"Rochelle"
56,,,107076,"Arrington Mountain",910,38.4741,-78.2405,650,260,"Mitchells Mountain","Deal Mountain",1.83,"Madison",30293,"Brightwood"
57,,,107079,"Carter Ridge",910,38.3555,-78.3473,750,160,"Berry Mountain","Banks Mountain",0.62,"Madison",30314,"Rochelle"
58,,,107114,"Round Head",850,38.3904,-78.3058,750,100,"Yager Mountain","Yager Mountain",0.92,"Madison",30292,"Madison"
59,,,107120,"Hume Mountain",830,38.4017,-78.1597,550,280,"Thorofare Mountain","Thorofare Mountain",1.53,"Madison",30293,"Brightwood"
60,,,107136,"Mitchell Bluff",810,38.3739,-78.3556,730,80,"Berry Mountain","Berry Mountain",1.24,"Madison",30314,"Rochelle"
61,,,107142,"Lost Mountain",770,38.3342,-78.2509,550,220,"Tippets Mountain","Thorofare Mountain",6.56,"Madison",30315,"Madison Mills"
62,,,107143,"Courthouse Mountain",770,38.3463,-78.2881,630,140,"Tippets Mountain","Tippets Mountain",2.66,"Madison",30314,"Rochelle"
